NORAD_CAT_ID,OBJECT_NAME,OBJECT_TYPE,EPOCH,MEAN_MOTION,ECCENTRICITY,INCLINATION,RA_OF_ASC_NODE,ARG_OF_PERICENTER,MEAN_ANOMALY,BSTAR,MEAN_MOTION_DOT,MEAN_MOTION_DDOT,TLE_LINE0,TLE_LINE1,TLE_LINE2,SEMIMAJOR_AXIS,PERIOD,APOGEE,PERIGEE,DECAYED
52706.0,STARLINK-3970,PAYLOAD,2022-12-30 07:41:25,15.08848081,0.0003156,53.2162,325.678,22.9333,337.18,0.00076642,0.00011934,0.0,0 STARLINK-3970,1 52706U 22053BC  22364.32043805  .00011934  00000-0  76642-3 0  9990,2 52706  53.2162 325.6780 0003156  22.9333 337.1800 15.08848081 34955,6917.856,95.437,541.904,537.5369999999998,0.0
52706.0,STARLINK-3970,PAYLOAD,2022-12-31 07:32:11,15.08864119,0.0003146,53.2167,321.2175,20.2239,339.8877,0.00031821,4.783e-05,0.0,0 STARLINK-3970,1 52706U 22053BC  22365.31402370  .00004783  00000-0  31821-3 0  9990,2 52706  53.2167 321.2175 0003146  20.2239 339.8877 15.08864119 35533,6917.807,95.436,541.8480000000002,537.495,0.0
52706.0,STARLINK-3970,PAYLOAD,2022-12-31 17:04:30,15.08858001,0.0003077,53.216,319.4337,23.3585,336.7547,-3.2108000000000005e-05,-8e-06,0.0,0 STARLINK-3970,1 52706U 22053BC  22365.71145949 -.00000800  00000-0 -32108-4 0  9998,2 52706  53.2160 319.4337 0003077  23.3585 336.7547 15.08858001 35595,6917.825,95.436,541.819,537.562,0.0
52706.0,STARLINK-3970,PAYLOAD,2023-01-01 04:12:12,15.08828525,0.0003108,53.2162,317.3521,20.8896,339.2222,-0.0003907,-6.500000000000001e-05,0.0,0 STARLINK-3970,1 52706U 22053BC  23001.17515024 -.00006500  00000-0 -39070-3 0  9998,2 52706  53.2162 317.3521 0003108  20.8896 339.2222 15.08828525 35238,6917.915,95.438,541.931,537.63,0.0
52706.0,STARLINK-3970,PAYLOAD,2023-01-01 05:47:37,15.0882925,0.0003176,53.2171,317.0540000000001,22.3978,337.7153,-0.0001022999999999,-1.916e-05,0.0,0 STARLINK-3970,1 52706U 22053BC  23001.24140308 -.00001916  00000-0 -10230-3 0  9998,2 52706  53.2171 317.0540 0003176  22.3978 337.7153 15.08829250 35242,6917.913000000001,95.438,541.975,537.581,0.0
52706.0,STARLINK-3970,PAYLOAD,2023-01-01 13:44:32,15.0883715,0.0003197,53.217,315.5666,22.5143,337.5989,-4.8264e-05,-1.057e-05,0.0,0 STARLINK-3970,1 52706U 22053BC  23001.57259709 -.00001057  00000-0 -48264-4 0  9995,2 52706  53.2170 315.5666 0003197  22.5143 337.5989 15.08837150 35728,6917.889,95.438,541.966,537.5419999999998,0.0
52706.0,STARLINK-3970,PAYLOAD,2023-01-01 20:06:04,15.08839518,0.0003216,53.2179,314.3778,23.0012,337.1124,-0.00012482,-2.275e-05,0.0,0 STARLINK-3970,1 52706U 22053BC  23001.83755733 -.00002275  00000-0 -12482-3 0  9997,2 52706  53.2179 314.3778 0003216  23.0012 337.1124 15.08839518 35335,6917.882,95.438,541.972,537.5219999999998,0.0
52706.0,STARLINK-3970,PAYLOAD,2023-01-02 13:35:18,15.08843949,0.0003293,53.2178,311.1065,24.0614,336.0532,3.6069e-05,2.85e-06,0.0,0 STARLINK-3970,1 52706U 22053BC  23002.56619124  .00000285  00000-0  36069-4 0  9996,2 52706  53.2178 311.1065 0003293  24.0614 336.0532 15.08843949 35875,6917.868,95.437,542.011,537.455,0.0
52706.0,STARLINK-3970,PAYLOAD,2023-01-02 19:56:51,15.08839708,0.0003114,53.2174,309.9178,26.0074,334.1074,9.2009e-06,-1.42e-06,0.0,0 STARLINK-3970,1 52706U 22053BC  23002.83115426 -.00000142  00000-0  92009-5 0  9992,2 52706  53.2174 309.9178 0003114  26.0074 334.1074 15.08839708 35918,6917.880999999999,95.438,541.901,537.592,0.0
52706.0,STARLINK-3970,PAYLOAD,2023-01-02 23:07:38,15.08834045,0.0003171999999999,53.2173,309.322,23.0622,337.0512,7.5557e-05,9.14e-06,0.0,0 STARLINK-3970,1 52706U 22053BC  23002.96363684  .00000914  00000-0  75557-4 0  9991,2 52706  53.2173 309.3220 0003172  23.0622 337.0512 15.08834045 35502,6917.899,95.438,541.9580000000002,537.569,0.0
52706.0,STARLINK-3970,PAYLOAD,2023-01-03 03:53:47,15.08832949,0.0002371,53.2185,308.4313,33.3758,326.7383,0.00016033,2.264e-05,0.0,0 STARLINK-3970,1 52706U 22053BC  23003.16235728  .00002264  00000-0  16033-3 0  9994,2 52706  53.2185 308.4313 0002371  33.3758 326.7383 15.08832949 35964,6917.901999999999,95.438,541.4069999999998,538.127,0.0
52706.0,STARLINK-3970,PAYLOAD,2023-01-03 19:47:39,15.08830849,0.0003157,53.2174,305.4577,24.4162,335.6980000000001,0.00011397,1.525e-05,0.0,0 STARLINK-3970,1 52706U 22053BC  23003.82476617  .00001525  00000-0  11397-3 0  9998,2 52706  53.2174 305.4577 0003157  24.4162 335.6980 15.08830849 35637,6917.908,95.438,541.957,537.589,0.0
52706.0,STARLINK-3970,PAYLOAD,2023-01-04 13:16:54,15.0883797,0.0003076,53.2173,302.1852,25.087,335.0271,8.3314e-05,1.038e-05,0.0,0 STARLINK-3970,1 52706U 22053BC  23004.55340758  .00001038  00000-0  83314-4 0  9993,2 52706  53.2173 302.1852 0003076  25.0870 335.0271 15.08837970 36178,6917.887,95.438,541.88,537.624,0.0
52706.0,STARLINK-3970,PAYLOAD,2023-01-05 01:59:59,15.08840423,0.0003033,53.2165,299.8063,24.5113,335.6022,0.00022232,3.252e-05,0.0,0 STARLINK-3970,1 52706U 22053BC  23005.08332801  .00003252  00000-0  22232-3 0  9993,2 52706  53.2165 299.8063 0003033  24.5113 335.6022 15.08840423 35820,6917.879,95.438,541.842,537.646,0.0
52706.0,STARLINK-3970,PAYLOAD,2023-01-06 19:20:01,15.08839893,0.0002886,53.215,292.0756,31.9139,328.2027,0.00012554,1.7100000000000002e-05,0.0,0 STARLINK-3970,1 52706U 22053BC  23006.80557605  .00001710  00000-0  12554-3 0  9998,2 52706  53.2150 292.0756 0002886  31.9139 328.2027 15.08839893 36084,6917.880999999999,95.438,541.742,537.749,0.0
52706.0,STARLINK-3970,PAYLOAD,2023-01-06 20:55:24,15.08842644,0.0002881,53.2149,291.7785,31.7824,328.3342,0.00019844,2.871e-05,0.0,0 STARLINK-3970,1 52706U 22053BC  23006.87181521  .00002871  00000-0  19844-3 0  9993,2 52706  53.2149 291.7785 0002881  31.7824 328.3342 15.08842644 36522,6917.871999999999,95.437,541.73,537.744,0.0
52706.0,STARLINK-3970,PAYLOAD,2023-01-06 22:30:47,15.08843917,0.0002881,53.2149,291.4813,31.9012,328.2154,0.00022041,3.222e-05,0.0,0 STARLINK-3970,1 52706U 22053BC  23006.93805474  .00003222  00000-0  22041-3 0  9994,2 52706  53.2149 291.4813 0002881  31.9012 328.2154 15.08843917 36537,6917.868,95.437,541.726,537.74,0.0
52706.0,STARLINK-3970,PAYLOAD,2023-01-07 19:10:49,15.08828076,0.0002583,53.2146,287.6152,39.2297,320.8882,0.00029191,4.359e-05,0.0,0 STARLINK-3970,1 52706U 22053BC  23007.79918184  .00004359  00000-0  29191-3 0  9997,2 52706  53.2146 287.6152 0002583  39.2297 320.8882 15.08828076 36234,6917.917,95.438,541.569,537.995,0.0
52706.0,STARLINK-3970,PAYLOAD,2023-01-07 20:46:12,15.08829807,0.0002532,53.2145,287.3177,40.103,320.0149,0.00029739,4.447e-05,0.0,0 STARLINK-3970,1 52706U 22053BC  23007.86542115  .00004447  00000-0  29739-3 0  9998,2 52706  53.2145 287.3177 0002532  40.1030 320.0149 15.08829807 36676,6917.911999999998,95.438,541.528,538.025,0.0
52706.0,STARLINK-3970,PAYLOAD,2023-01-08 03:07:44,15.08843482,0.0002566999999999,53.2144,286.1281,39.6614,320.4565,0.00023421,3.441e-05,0.0,0 STARLINK-3970,1 52706U 22053BC  23008.13037458  .00003441  00000-0  23421-3 0  9993,2 52706  53.2144 286.1281 0002567  39.6614 320.4565 15.08843482 36285,6917.87,95.437,541.511,537.9590000000002,0.0
52706.0,STARLINK-3970,PAYLOAD,2023-01-08 11:04:40,15.08836784,0.0002674,53.2141,284.6411,39.0335,321.085,8.6886e-06,-1.5e-06,0.0,0 STARLINK-3970,1 52706U 22053BC  23008.46157754 -.00000150  00000-0  86886-5 0  9992,2 52706  53.2141 284.6411 0002674  39.0335 321.0850 15.08836784 36330,6917.89,95.438,541.605,537.905,0.0
52706.0,STARLINK-3970,PAYLOAD,2023-01-09 02:58:31,15.08845675,0.0002796,53.2143,281.6667,42.3542,317.7666,0.0001295,1.773e-05,0.0,0 STARLINK-3970,1 52706U 22053BC  23009.12397375  .00001773  00000-0  12950-3 0  9991,2 52706  53.2143 281.6667 0002796  42.3542 317.7666 15.08845675 36431,6917.863,95.437,541.6619999999998,537.794,0.0
52706.0,STARLINK-3970,PAYLOAD,2023-01-09 20:27:46,15.08828993,0.0002878999999999,53.2145,278.3954,46.2604,313.8627,-1.4699e-05,-5.22e-06,0.0,0 STARLINK-3970,1 52706U 22053BC  23009.85262534 -.00000522  00000-0 -14699-4 0  9995,2 52706  53.2145 278.3954 0002879  46.2604 313.8627 15.08828993 36976,6917.914000000002,95.438,541.771,537.7869999999998,0.0
52706.0,STARLINK-3970,PAYLOAD,2023-01-10 10:46:14,15.0883779,0.000244,53.2153,275.7178,50.7274,309.3934,9.9552e-05,1.296e-05,0.0,0 STARLINK-3970,1 52706U 22053BC  23010.44878257  .00001296  00000-0  99552-4 0  9995,2 52706  53.2153 275.7178 0002440  50.7274 309.3934 15.08837790 36630,6917.887,95.438,541.44,538.064,0.0
52706.0,STARLINK-3970,PAYLOAD,2023-01-10 12:21:37,15.08839666,0.0002249,53.2137,275.4235,52.6189,307.5008,-1.4708e-05,-5.22e-06,0.0,0 STARLINK-3970,1 52706U 22053BC  23010.51501860 -.00000522  00000-0 -14708-4 0  9999,2 52706  53.2137 275.4235 0002249  52.6189 307.5008 15.08839666 37071,6917.880999999999,95.438,541.302,538.191,0.0
52706.0,STARLINK-3970,PAYLOAD,2023-01-10 20:18:33,15.08840323,0.00023,53.2133,273.9362,55.9332,304.1878,0.000101,1.319e-05,0.0,0 STARLINK-3970,1 52706U 22053BC  23010.84622058  .00001319  00000-0  10100-3 0  9992,2 52706  53.2133 273.9362 0002300  55.9332 304.1878 15.08840323 37121,6917.879,95.438,541.336,538.153,0.0
52706.0,STARLINK-3970,PAYLOAD,2023-01-11 01:04:42,15.08848873,0.0002214,53.2132,273.04400000000004,55.6518,304.4684,-6.6086e-05,-1.34e-05,0.0,0 STARLINK-3970,1 52706U 22053BC  23011.04493717 -.00001340  00000-0 -66086-4 0  9994,2 52706  53.2132 273.0440 0002214  55.6518 304.4684 15.08848873 36726,6917.853,95.437,541.25,538.187,0.0
52706.0,STARLINK-3970,PAYLOAD,2023-01-11 12:12:24,15.08841225,0.0002117,53.2134,270.9621,58.5006,301.6192,-4.8284e-05,-1.057e-05,0.0,0 STARLINK-3970,1 52706U 22053BC  23011.50861833 -.00001057  00000-0 -48284-4 0  9998,2 52706  53.2134 270.9621 0002117  58.5006 301.6192 15.08841225 37224,6917.877,95.437,541.206,538.2769999999998,0.0
52706.0,STARLINK-3970,PAYLOAD,2023-01-11 20:09:20,15.08840744,0.0002222,53.2132,269.4755,60.1562,299.9651,4.751100000000001e-05,4.68e-06,0.0,0 STARLINK-3970,1 52706U 22053BC  23011.83982237  .00000468  00000-0  47511-4 0  9991,2 52706  53.2132 269.4755 0002222  60.1562 299.9651 15.08840744 37275,6917.8780000000015,95.438,541.28,538.206,0.0
